NORAD_CAT_ID,OBJECT_NAME,OBJECT_TYPE,EPOCH,MEAN_MOTION,ECCENTRICITY,INCLINATION,RA_OF_ASC_NODE,ARG_OF_PERICENTER,MEAN_ANOMALY,BSTAR,MEAN_MOTION_DOT,MEAN_MOTION_DDOT,TLE_LINE0,TLE_LINE1,TLE_LINE2,SEMIMAJOR_AXIS,PERIOD,APOGEE,PERIGEE,DECAYED
53922.0,STARLINK-5002,PAYLOAD,2023-06-09 03:03:26,15.08839794,0.0001039,53.2158,143.5252,78.9536,281.1573,4.1589e-05,3.74e-06,0.0,0 STARLINK-5002,1 53922U 22119AN  23160.12738751  .00000374  00000-0  41589-4 0  9997,2 53922  53.2158 143.5252 0001039  78.9536 281.1573 15.08839794 40173,6917.881,95.438,540.465,539.027,0.0
53922.0,STARLINK-5002,PAYLOAD,2023-06-09 22:08:04,15.08832718,0.0001043,53.2161,139.957,87.232,272.8791,2.1904e-05,6.1e-07,0.0,0 STARLINK-5002,1 53922U 22119AN  23160.92227393  .00000061  00000-0  21904-4 0  9992,2 53922  53.2161 139.9570 0001043  87.2320 272.8791 15.08832718 39871,6917.903,95.438,540.489,539.046,0.0
53922.0,STARLINK-5002,PAYLOAD,2023-06-10 07:40:23,15.08835986,0.0001047,53.216,138.1725,84.7874,275.3237,3.9434e-05,3.4e-06,0.0,0 STARLINK-5002,1 53922U 22119AN  23161.31971284  .00000340  00000-0  39434-4 0  9998,2 53922  53.2160 138.1725 0001047  84.7874 275.3237 15.08835986 40351,6917.893,95.438,540.482,539.033,0.0
53922.0,STARLINK-5002,PAYLOAD,2023-06-10 23:34:14,15.08835829,0.0001068,53.2159,135.1983,88.8199,271.2915,2.6715e-05,1.37e-06,0.0,0 STARLINK-5002,1 53922U 22119AN  23161.98211517  .00000137  00000-0  26715-4 0  9999,2 53922  53.2159 135.1983 0001068  88.8199 271.2915 15.08835829 40039,6917.893,95.438,540.497,539.019,0.0
53922.0,STARLINK-5002,PAYLOAD,2023-06-11 05:55:47,15.08840415,0.0001111,53.2163,134.008,84.9284,275.1834,4.9584e-05,5.01e-06,0.0,0 STARLINK-5002,1 53922U 22119AN  23162.24707239  .00000501  00000-0  49584-4 0  9994,2 53922  53.2163 134.0080 0001111  84.9284 275.1834 15.08840415 40491,6917.879,95.438,540.513,538.976,0.0
53922.0,STARLINK-5002,PAYLOAD,2023-06-11 21:49:38,15.08841079,0.0001132,53.2166,131.0349,82.7664,277.3456,9.0519e-05,1.153e-05,0.0,0 STARLINK-5002,1 53922U 22119AN  23162.90947120  .00001153  00000-0  90519-4 0  9990,2 53922  53.2166 131.0349 0001132  82.7664 277.3456 15.08841079 40592,6917.877,95.437,540.525,538.959,0.0
53922.0,STARLINK-5002,PAYLOAD,2023-06-12 04:11:10,15.08846728,0.000114,53.2164,129.846,82.9516,277.1606,0.00013191,1.813e-05,0.0,0 STARLINK-5002,1 53922U 22119AN  23163.17442604  .00001813  00000-0  13191-3 0  9990,2 53922  53.2164 129.8460 0001140  82.9516 277.1606 15.08846728 40216,6917.86,95.437,540.513,538.936,0.0
53922.0,STARLINK-5002,PAYLOAD,2023-06-12 15:18:52,15.0884125,0.0001148,53.2163,127.7647,84.1179,275.9944,8.5272e-05,1.07e-05,0.0,0 STARLINK-5002,1 53922U 22119AN  23163.63811010  .00001070  00000-0  85272-4 0  9997,2 53922  53.2163 127.7647 0001148  84.1179 275.9944 15.08841250 40289,6917.877,95.437,540.536,538.947,0.0
53922.0,STARLINK-5002,PAYLOAD,2023-06-13 04:01:58,15.0883607,0.0001274,53.2175,125.3864,90.1168,269.997,1.2812e-05,-8.4e-07,0.0,0 STARLINK-5002,1 53922U 22119AN  23164.16803636 -.00000084  00000-0  12812-4 0  9996,2 53922  53.2175 125.3864 0001274  90.1168 269.9970 15.08836070 40367,6917.892,95.438,540.639,538.876,0.0
53922.0,STARLINK-5002,PAYLOAD,2023-06-13 07:12:44,15.08837187,0.000129,53.2174,124.7916,90.007,270.107,2.0682e-05,4.1e-07,0.0,0 STARLINK-5002,1 53922U 22119AN  23164.30051555  .00000041  00000-0  20682-4 0  9993,2 53922  53.2174 124.7916 0001290  90.0070 270.1070 15.08837187 40800,6917.889,95.438,540.646,538.862,0.0
53922.0,STARLINK-5002,PAYLOAD,2023-06-14 07:03:31,15.08839894,0.0001333,53.2174,120.3296,98.5182,261.5962,-2.4215e-05,-6.73e-06,0.0,0 STARLINK-5002,1 53922U 22119AN  23165.29411566 -.00000673  00000-0 -24215-4 0  9993,2 53922  53.2174 120.3296 0001333  98.5182 261.5962 15.08839894 40539,6917.881,95.438,540.668,538.824,0.0
53922.0,STARLINK-5002,PAYLOAD,2023-06-14 21:22:00,15.08833476,0.0001311,53.2174,117.6529,99.8966,260.2174,4.7247e-05,4.64e-06,0.0,0 STARLINK-5002,1 53922U 22119AN  23165.89027835  .00000464  00000-0  47247-4 0  9997,2 53922  53.2174 117.6529 0001311  99.8966 260.2174 15.08833476 41045,6917.9,95.438,540.672,538.858,0.0
53922.0,STARLINK-5002,PAYLOAD,2023-06-15 05:18:55,15.08839375,0.0001234,53.217,116.1674,94.2466,265.8667,7.4014e-05,8.9e-06,0.0,0 STARLINK-5002,1 53922U 22119AN  23166.22147491  .00000890  00000-0  74014-4 0  9991,2 53922  53.2170 116.1674 0001234  94.2466 265.8667 15.08839375 41091,6917.882,95.438,540.601,538.894,0.0
53922.0,STARLINK-5002,PAYLOAD,2023-06-16 03:34:19,15.08842257,0.0001154,53.2176,112.0063,86.3931,273.7193,3.7355e-05,3.07e-06,0.0,0 STARLINK-5002,1 53922U 22119AN  23167.14883698  .00000307  00000-0  37355-4 0  9999,2 53922  53.2176 112.0063 0001154  86.3931 273.7193 15.08842257 40818,6917.873,95.437,540.537,538.94,0.0
53922.0,STARLINK-5002,PAYLOAD,2023-06-16 06:45:05,15.08844046,0.0001126,53.2173,111.4106,87.9064,272.2057,6.6101e-05,7.64e-06,0.0,0 STARLINK-5002,1 53922U 22119AN  23167.28131493  .00000764  00000-0  66101-4 0  9991,2 53922  53.2173 111.4106 0001126  87.9064 272.2057 15.08844046 41259,6917.868,95.437,540.512,538.954,0.0
53922.0,STARLINK-5002,PAYLOAD,2023-06-17 05:00:29,15.08845924,0.0001094,53.217,107.2475,89.2064,270.9054,7.6331e-05,9.27e-06,0.0,0 STARLINK-5002,1 53922U 22119AN  23168.20867285  .00000927  00000-0  76331-4 0  9996,2 53922  53.2170 107.2475 0001094  89.2064 270.9054 15.08845924 40973,6917.862,95.437,540.484,538.97,0.0
53922.0,STARLINK-5002,PAYLOAD,2023-06-17 12:57:25,15.08835472,8.45e-05,53.2179,105.7629,105.7019,254.4067,-2.0378e-06,-3.2e-06,0.0,0 STARLINK-5002,1 53922U 22119AN  23168.53988018 -.00000320  00000-0 -20378-5 0  9990,2 53922  53.2179 105.7629 0000845 105.7019 254.4067 15.08835472 41444,6917.894,95.438,540.344,539.175,0.0
53922.0,STARLINK-5002,PAYLOAD,2023-06-18 01:40:31,15.08832735,0.0001139,53.217,103.3818,90.8065,269.3058,-6.021e-05,-1.246e-05,0.0,0 STARLINK-5002,1 53922U 22119AN  23169.06980785 -.00001246  00000-0 -60210-4 0  9998,2 53922  53.2170 103.3818 0001139  90.8065 269.3058 15.08832735 41108,6917.903,95.438,540.556,538.98,0.0
53922.0,STARLINK-5002,PAYLOAD,2023-06-18 12:48:13,15.08838032,0.000121,53.218,101.3003,91.2828,268.8302,-3.1726e-06,-3.38e-06,0.0,0 STARLINK-5002,1 53922U 22119AN  23169.53348400 -.00000338  00000-0 -31726-5 0  9994,2 53922  53.2180 101.3003 0001210  91.2828 268.8302 15.08838032 41590,6917.886,95.438,540.588,538.914,0.0
53922.0,STARLINK-5002,PAYLOAD,2023-06-18 19:09:45,15.08837381,0.0001051,53.2176,100.1105,101.8011,258.3099,4.8268e-05,4.8e-06,0.0,0 STARLINK-5002,1 53922U 22119AN  23169.79844211  .00000480  00000-0  48268-4 0  9997,2 53922  53.2176 100.1105 0001051 101.8011 258.3099 15.08837381 41212,6917.888,95.438,540.48,539.026,0.0
53922.0,STARLINK-5002,PAYLOAD,2023-06-19 04:42:03,15.08845162,0.0001141,53.2167,98.3268,116.0959,244.0151,7.5213e-05,9.1e-06,0.0,0 STARLINK-5002,1 53922U 22119AN  23170.19587616  .00000910  00000-0  75213-4 0  9994,2 53922  53.2167  98.3268 0001141 116.0959 244.0151 15.08845162 41272,6917.865,95.437,540.519,538.94,0.0
53922.0,STARLINK-5002,PAYLOAD,2023-06-19 12:38:59,15.08833689,0.0001019,53.216,96.8394,110.2386,249.8716,0.00016268,2.302e-05,0.0,0 STARLINK-5002,1 53922U 22119AN  23170.52708201  .00002302  00000-0  16268-3 0  9997,2 53922  53.2160  96.8394 0001019 110.2386 249.8716 15.08833689 41745,6917.9,95.438,540.47,539.06,0.0
53922.0,STARLINK-5002,PAYLOAD,2023-06-20 04:32:51,15.08840939,9.74e-05,53.216,93.8645,101.8568,258.2533,9.5539e-05,1.233e-05,0.0,0 STARLINK-5002,1 53922U 22119AN  23171.18948034  .00001233  00000-0  95539-4 0  9991,2 53922  53.2160  93.8645 0000974 101.8568 258.2533 15.08840939 41846,6917.878,95.437,540.416,539.069,0.0
53922.0,STARLINK-5002,PAYLOAD,2023-06-20 18:51:18,15.08849997,4.69e-05,53.2162,91.1899,67.8969,292.2073,0.0001178,1.588e-05,0.0,0 STARLINK-5002,1 53922U 22119AN  23171.78563189  .00001588  00000-0  11780-3 0  9999,2 53922  53.2162  91.1899 0000469  67.8969 292.2073 15.08849997 41935,6917.85,95.437,540.039,539.39,0.0
53922.0,STARLINK-5002,PAYLOAD,2023-06-21 01:12:49,15.0887602,0.0001132,53.2171,89.9992,99.1616,260.9504,0.00026634,3.958e-05,0.0,0 STARLINK-5002,1 53922U 22119AN  23172.05056813  .00003958  00000-0  26634-3 0  9998,2 53922  53.2171  89.9992 0001132  99.1616 260.9504 15.08876020 41555,6917.77,95.435,540.418,538.852,0.0
53922.0,STARLINK-5002,PAYLOAD,2023-06-21 18:42:05,15.08839791,0.0001166,53.2164,86.727,89.1871,270.9255,1.6851e-05,-2e-07,0.0,0 STARLINK-5002,1 53922U 22119AN  23172.77923505 -.00000020  00000-0  16851-4 0  9997,2 53922  53.2164  86.7270 0001166  89.1871 270.9255 15.08839791 41660,6917.881,95.438,540.553,538.939,0.0
53922.0,STARLINK-5002,PAYLOAD,2023-06-22 02:39:02,15.08828883,0.0001002,53.2176,85.2426,66.7021,293.4077,-0.00013717,-2.469e-05,0.0,0 STARLINK-5002,1 53922U 22119AN  23173.11044718 -.00002469  00000-0 -13717-3 0  9993,2 53922  53.2176  85.2426 0001002  66.7021 293.4077 15.08828883 41715,6917.914,95.438,540.473,539.086,0.0
53922.0,STARLINK-5002,PAYLOAD,2023-06-22 10:35:58,15.08832797,0.0001021,53.2176,83.7557,67.3639,292.7461,-9.4191e-05,-1.786e-05,0.0,0 STARLINK-5002,1 53922U 22119AN  23173.44164500 -.00001786  00000-0 -94191-4 0  9998,2 53922  53.2176  83.7557 0001021  67.3639 292.7461 15.08832797 41769,6917.902,95.438,540.474,539.061,0.0
53922.0,STARLINK-5002,PAYLOAD,2023-06-23 00:54:25,15.08853727,0.0001284,53.2169,81.0798,81.0033,279.1104,-0.00010439,-1.95e-05,0.0,0 STARLINK-5002,1 53922U 22119AN  23174.03779209 -.00001950  00000-0 -10439-3 0  9997,2 53922  53.2169  81.0798 0001284  81.0033 279.1104 15.08853727 41850,6917.838,95.437,540.592,538.815,0.0
53922.0,STARLINK-5002,PAYLOAD,2023-06-23 10:26:44,15.08848476,0.0001366,53.2166,79.2981,91.0377,269.0771,-0.00020248,-3.51e-05,0.0,0 STARLINK-5002,1 53922U 22119AN  23174.43523495 -.00003510  00000-0 -20248-3 0  9998,2 53922  53.2166  79.2981 0001366  91.0377 269.0771 15.08848476 41913,6917.854,95.437,540.664,538.775,0.0
